{
  "type": "FeatureCollection",
  "features": [
    {
      "type": "Feature",
      "properties": {
        "norad_id": 31005,
        "name": "FENGYUN 1C DEB",
        "group": "fengyun-1c-debris",
        "lat": -3.9564293541827444,
        "lon": -48.60615543006752,
        "alt_km": 992.5853231434485,
        "timestamp": "2025-12-25T07:00:34.326862+00:00",
        "meta_object_name": "FENGYUN 1C DEB",
        "meta_object_id": "1999-025BCX",
        "meta_epoch": "2025-12-24T20:26:53.843712",
        "meta_mean_motion": 13.83313907,
        "meta_eccentricity": 0.01810646,
        "meta_inclination": 98.6136,
        "meta_ra_of_asc_node": 131.5913,
        "meta_arg_of_pericenter": 292.2883,
        "meta_mean_anomaly": 223.3553,
        "meta_ephemeris_type": 0,
        "meta_classification_type": "U",
        "meta_norad_cat_id": 31005,
        "meta_element_set_no": 999,
        "meta_rev_at_epoch": 94448,
        "meta_bstar": 0.0012105007,
        "meta_mean_motion_dot": 1.468e-05,
        "meta_mean_motion_ddot": 0,
        "tle_line1": "1 31005U 99025BCX 25358.85201208  .00001468  00000+0  12105-2 0  9992",
        "tle_line2": "2 31005  98.6136 131.5913 0181064 292.2883 223.3553 13.83313907944481"
      },
      "geometry": {
        "type": "Point",
        "coordinates": [
          -48.60615543006752,
          -3.9564293541827444
        ]
      }
    },
    {
      "type": "Feature",
      "properties": {
        "norad_id": 31007,
        "name": "FENGYUN 1C DEB",
        "group": "fengyun-1c-debris",
        "lat": 57.40332362595181,
        "lon": -22.085687716097947,
        "alt_km": 666.7351502531283,
        "timestamp": "2025-12-25T07:00:34.326873+00:00",
        "meta_object_name": "FENGYUN 1C DEB",
        "meta_object_id": "1999-025BCZ",
        "meta_epoch": "2025-12-23T10:18:07.943904",
        "meta_mean_motion": 14.58852316,
        "meta_eccentricity": 0.00666368,
        "meta_inclination": 98.0883,
        "meta_ra_of_asc_node": 348.9498,
        "meta_arg_of_pericenter": 5.1662,
        "meta_mean_anomaly": 355.0211,
        "meta_ephemeris_type": 0,
        "meta_classification_type": "U",
        "meta_norad_cat_id": 31007,
        "meta_element_set_no": 999,
        "meta_rev_at_epoch": 98250,
        "meta_bstar": 0.0023416257,
        "meta_mean_motion_dot": 0.00011269,
        "meta_mean_motion_ddot": 0,
        "tle_line1": "1 31007U 99025BCZ 25357.42925861  .00011269  00000+0  23416-2 0  9991",
        "tle_line2": "2 31007  98.0883 348.9498 0066636   5.1662 355.0211 14.58852316982505"
      },
      "geometry": {
        "type": "Point",
        "coordinates": [
          -22.085687716097947,
          57.40332362595181
        ]
      }
    },
    {
      "type": "Feature",
      "properties": {
        "norad_id": 31009,
        "name": "FENGYUN 1C DEB",
        "group": "fengyun-1c-debris",
        "lat": -32.318610892327804,
        "lon": 169.09043136023925,
        "alt_km": 860.5137904418434,
        "timestamp": "2025-12-25T07:00:34.326883+00:00",
        "meta_object_name": "FENGYUN 1C DEB",
        "meta_object_id": "1999-025BDB",
        "meta_epoch": "2025-12-24T11:51:17.920224",
        "meta_mean_motion": 14.00367455,
        "meta_eccentricity": 0.00532331,
        "meta_inclination": 98.8964,
        "meta_ra_of_asc_node": 354.0006,
        "meta_arg_of_pericenter": 204.0213,
        "meta_mean_anomaly": 307.2225,
        "meta_ephemeris_type": 0,
        "meta_classification_type": "U",
        "meta_norad_cat_id": 31009,
        "meta_element_set_no": 999,
        "meta_rev_at_epoch": 96025,
        "meta_bstar": 6.2862676e-05,
        "meta_mean_motion_dot": 5.1e-07,
        "meta_mean_motion_ddot": 0,
        "tle_line1": "1 31009U 99025BDB 25358.49395741  .00000051  00000+0  62863-4 0  9997",
        "tle_line2": "2 31009  98.8964 354.0006 0053233 204.0213 307.2225 14.00367455960253"
      },
      "geometry": {
        "type": "Point",
        "coordinates": [
          169.09043136023925,
          -32.318610892327804
        ]
      }
    },
    {
      "type": "Feature",
      "properties": {
        "norad_id": 31010,
        "name": "FENGYUN 1C DEB",
        "group": "fengyun-1c-debris",
        "lat": -9.384501580791147,
        "lon": 152.45312934578482,
        "alt_km": 737.5296482514186,
        "timestamp": "2025-12-25T07:00:34.326894+00:00",
        "meta_object_name": "FENGYUN 1C DEB",
        "meta_object_id": "1999-025BDC",
        "meta_epoch": "2025-12-24T09:09:46.721664",
        "meta_mean_motion": 14.25975866,
        "meta_eccentricity": 0.01134696,
        "meta_inclination": 101.7255,
        "meta_ra_of_asc_node": 149.2717,
        "meta_arg_of_pericenter": 324.0111,
        "meta_mean_anomaly": 35.3454,
        "meta_ephemeris_type": 0,
        "meta_classification_type": "U",
        "meta_norad_cat_id": 31010,
        "meta_element_set_no": 999,
        "meta_rev_at_epoch": 95795,
        "meta_bstar": 0.0034579422,
        "meta_mean_motion_dot": 8.768e-05,
        "meta_mean_motion_ddot": 0,
        "tle_line1": "1 31010U 99025BDC 25358.38179076  .00008768  00000+0  34579-2 0  9992",
        "tle_line2": "2 31010 101.7255 149.2717 0113469 324.0111  35.3454 14.25975866957957"
      },
      "geometry": {
        "type": "Point",
        "coordinates": [
          152.45312934578482,
          -9.384501580791147
        ]
      }
    },
    {
      "type": "Feature",
      "properties": {
        "norad_id": 31012,
        "name": "FENGYUN 1C DEB",
        "group": "fengyun-1c-debris",
        "lat": 2.134628351253339,
        "lon": 77.97987507311028,
        "alt_km": 754.4457402587641,
        "timestamp": "2025-12-25T07:00:34.326904+00:00",
        "meta_object_name": "FENGYUN 1C DEB",
        "meta_object_id": "1999-025BDE",
        "meta_epoch": "2025-12-24T16:59:28.523328",
        "meta_mean_motion": 14.27873443,
        "meta_eccentricity": 0.00816279,
        "meta_inclination": 98.9115,
        "meta_ra_of_asc_node": 257.0491,
        "meta_arg_of_pericenter": 216.3018,
        "meta_mean_anomaly": 201.2228,
        "meta_ephemeris_type": 0,
        "meta_classification_type": "U",
        "meta_norad_cat_id": 31012,
        "meta_element_set_no": 999,
        "meta_rev_at_epoch": 97918,
        "meta_bstar": 0.00016140855,
        "meta_mean_motion_dot": 3.67e-06,
        "meta_mean_motion_ddot": 0,
        "tle_line1": "1 31012U 99025BDE 25358.70796902  .00000367  00000+0  16141-3 0  9996",
        "tle_line2": "2 31012  98.9115 257.0491 0081627 216.3018 201.2228 14.27873443979189"
      },
      "geometry": {
        "type": "Point",
        "coordinates": [
          77.97987507311028,
          2.134628351253339
        ]
      }
    },
    {
      "type": "Feature",
      "properties": {
        "norad_id": 31014,
        "name": "FENGYUN 1C DEB",
        "group": "fengyun-1c-debris",
        "lat": -9.666143500281299,
        "lon": 152.96484629850212,
        "alt_km": 847.5662538704482,
        "timestamp": "2025-12-25T07:00:34.326914+00:00",
        "meta_object_name": "FENGYUN 1C DEB",
        "meta_object_id": "1999-025BDG",
        "meta_epoch": "2025-12-24T21:47:37.838976",
        "meta_mean_motion": 13.9849289,
        "meta_eccentricity": 0.00885195,
        "meta_inclination": 98.8694,
        "meta_ra_of_asc_node": 334.1175,
        "meta_arg_of_pericenter": 159.9527,
        "meta_mean_anomaly": 257.0492,
        "meta_ephemeris_type": 0,
        "meta_classification_type": "U",
        "meta_norad_cat_id": 31014,
        "meta_element_set_no": 999,
        "meta_rev_at_epoch": 96006,
        "meta_bstar": -9.8679836e-05,
        "meta_mean_motion_dot": -1.88e-06,
        "meta_mean_motion_ddot": 0,
        "tle_line1": "1 31014U 99025BDG 25358.90807684 -.00000188  00000+0 -98680-4 0  9992",
        "tle_line2": "2 31014  98.8694 334.1175 0088519 159.9527 257.0492 13.98492890960061"
      },
      "geometry": {
        "type": "Point",
        "coordinates": [
          152.96484629850212,
          -9.666143500281299
        ]
      }
    },
    {
      "type": "Feature",
      "properties": {
        "norad_id": 31016,
        "name": "FENGYUN 1C DEB",
        "group": "fengyun-1c-debris",
        "lat": -51.10184514580241,
        "lon": 25.34282309122449,
        "alt_km": 770.5128860405639,
        "timestamp": "2025-12-25T07:00:34.326925+00:00",
        "meta_object_name": "FENGYUN 1C DEB",
        "meta_object_id": "1999-025BDJ",
        "meta_epoch": "2025-12-23T23:38:38.001984",
        "meta_mean_motion": 14.30511594,
        "meta_eccentricity": 0.0112136,
        "meta_inclination": 98.4358,
        "meta_ra_of_asc_node": 13.4764,
        "meta_arg_of_pericenter": 240.6193,
        "meta_mean_anomaly": 179.8775,
        "meta_ephemeris_type": 0,
        "meta_classification_type": "U",
        "meta_norad_cat_id": 31016,
        "meta_element_set_no": 999,
        "meta_rev_at_epoch": 97631,
        "meta_bstar": 0.0002533,
        "meta_mean_motion_dot": 6.63e-06,
        "meta_mean_motion_ddot": 0,
        "tle_line1": "1 31016U 99025BDJ 25357.98516206  .00000663  00000+0  25330-3 0  9995",
        "tle_line2": "2 31016  98.4358  13.4764 0112136 240.6193 179.8775 14.30511594976317"
      },
      "geometry": {
        "type": "Point",
        "coordinates": [
          25.34282309122449,
          -51.10184514580241
        ]
      }
    }
  ]
}